PERSEUS-M1              
1 40039U 14033AF  26131.57266495  .00001129  00000+0  10728-3 0  9997
2 40039  97.9625  75.1123 0012873  62.6040 297.6488 14.95504792645166
POLYITAN-1              
1 40042U 14033AJ  26131.48912233  .00010919  00000+0  35618-3 0  9991
2 40042  98.0977 154.3150 0005360 273.2288  86.8338 15.31985615647970
TIGRISAT                
1 40043U 14033AK  26131.39478407  .00001502  00000+0  17873-3 0  9993
2 40043  97.7788 282.2635 0049145 193.7776 166.2101 14.85002615640166
AEROCUBE 6A             
1 40045U 14033AM  26131.41597342  .00004858  00000+0  41286-3 0  9990
2 40045  97.7212 298.7743 0040204 136.9009 223.5373 14.97694773641116
AEROCUBE 6B             
1 40046U 14033AN  26131.38694028  .00004036  00000+0  33215-3 0  9997
2 40046  97.7175 298.4627 0037795 130.4569 229.9960 14.99117723641247
CANX-4                  
1 40055U 14034C   26131.20080173  .00000545  00000+0  77320-4 0  9996
2 40055  98.3173   5.1488 0013818 126.4174 233.8314 14.81195001639056
CANX-5                  
1 40056U 14034D   26131.19966159  .00000537  00000+0  76211-4 0  9991
2 40056  98.3174   5.1889 0013811 126.6488 233.5995 14.81211971629861
UKUBE-1                 
1 40074U 14037F   26130.93999816  .00005489  00000+0  31571-3 0  9991
2 40074  98.4249 130.3192 0000519  43.5376 316.5894 15.12954494642928
BRITE-PL2 (HEWELIUSZ)   
1 40119U 14049B   26131.28149233  .00000908  00000+0  89657-4 0  9993
2 40119  97.9056 243.0096 0012984 228.2405 131.7706 14.94454349635932
AEROCUBE 5C             
1 40965U 15058B   26131.02081790  .00002105  00000+0  19503-3 0  9991
2 40965  64.7690  18.1937 0129755  77.8891 283.6724 14.91240223360117
AEROCUBE 7              
1 40966U 15058C   26131.05548127  .00002922  00000+0  24264-3 0  9994
2 40966  64.7640   1.0944 0119555  76.5651 284.8755 14.95434149360404
FOX-1A (AO-85)          
1 40967U 15058D   26131.12332539  .00002179  00000+0  20423-3 0  9998
2 40967  64.7766  34.1460 0128911  71.1275 290.3763 14.90748371108044
SINOD-D 1               
1 40968U 15058E   26131.10472420  .00003030  00000+0  25114-3 0  9990
2 40968  64.7770  15.0135 0117392  67.9327 293.4204 14.95612391111112
SNAP-3 ALICE            
1 40970U 15058G   26131.54256510  .00053534  00000+0  82454-3 0  9995
2 40970  64.7531 229.8456 0032701  31.6012 328.7085 15.53252455111182
LMRST-SAT               
1 40971U 15058H   26131.13637966  .00002158  00000+0  20353-3 0  9995
2 40971  64.7773  30.3740 0130695  73.1434 288.3963 14.90373880108034
SNAP-3 EDDIE            
1 40972U 15058J   26131.36744991  .00054720  00000+0  80795-3 0  9996
2 40972  64.7449 221.4318 0033155  35.3408 324.9923 15.54381568113293
PROPCUBE 3              
1 40973U 15058K   26131.06159416  .00002630  00000+0  22658-3 0  9993
2 40973  64.7702   8.5073 0122895  74.6954 286.7704 14.94001315109255
BISONSAT                
1 40974U 15058L   26131.41635544  .00007922  00000+0  39564-3 0  9997
2 40974  64.7596 292.4501 0078661  63.2617 297.6530 15.15441294110043
SNAP-3 JIMI             
1 40975U 15058M   26131.57164353  .00003919  00000+0  27816-3 0  9999
2 40975  64.7662 335.5876 0104860  70.5532 290.6880 15.01918638108729
PROPCUBE 1 (FLORA)      
1 40976U 15058N   26131.19156546  .00002008  00000+0  19789-3 0  9991
2 40976  64.7756  49.8749 0129507  75.3994 286.1437 14.89008449110757
SINOD-D 3               
1 40977U 15058P   26131.42160733  .00002808  00000+0  24535-3 0  9994
2 40977  64.7740  30.6004 0118006  72.8153 288.5839 14.93730585109268
HORYU-4                 
1 41340U 16012D   26131.28595665  .00128087  00000+0  72298-3 0  9997
2 41340  30.9892 345.7069 0005699  11.0917 348.9865 15.77627196564950
RAVAN                   
1 41849U 16067B   26131.24862093  .00028639  00000+0  48801-3 0  9994
2 41849  97.9940  16.6547 0007216 124.1887 236.0048 15.51318395521969
CELTEE 1                
1 41850U 16067C   26131.06591827  .00003011  00000+0  14632-3 0  9992
2 41850  98.0724 355.1030 0001894  61.4203 298.7220 15.19312541520240
OPTICUBE 04             
1 41851U 16067D   26131.15831347  .00001198  00000+0  79064-4 0  9992
2 41851  98.0739 341.5069 0014388 240.6297 119.3494 15.09500079519584
AEROCUBE 8D             
1 41852U 16067E   26131.19284631  .00004501  00000+0  18991-3 0  9997
2 41852  98.0737 358.5566 0001891 257.1576 102.9448 15.23875407520430
AEROCUBE 8C             
1 41853U 16067F   26131.09240816  .00004897  00000+0  20480-3 0  9998
2 41853  98.0607 355.7248 0005354 173.2379 186.8929 15.24112366520412
CORVUS BC2              
1 42846U 17042X   26131.38947772  .00002406  00000+0  16870-3 0  9994
2 42846  97.4038 294.1847 0011936 233.9363 126.0760 15.06059278481526
CORVUS BC1              
1 42847U 17042Y   26131.38826781  .00002400  00000+0  16752-3 0  9994
2 42847  97.4071 294.9735 0011215 207.6050 152.4584 15.06231488481554
MAKERSAT 0              
1 43016U 17073D   26131.19444802  .00016348  00000+0  45809-3 0  9997
2 43016  97.4680  13.4606 0112017  45.4177 315.6139 15.30516462460809
